{"type": "FeatureCollection", "features": [ {"type": "Feature", "properties": {"norad_id": 28649, "name": "IRS-P5 (CARTOSAT-1)", "group": "resource", "lat": -48.83888230761618, "lon": -166.9241588072931, "alt_km": 603.9999821951515, "timestamp": "2025-12-21T18:54:58.149816+00:00", "meta": {"OBJECT_NAME": "IRS-P5 (CARTOSAT-1)", "OBJECT_ID": "2005-017A", "EPOCH": "2025-12-21T01:46:39.296352", "MEAN_MOTION": 14.90430022, "ECCENTRICITY": 7.415e-05, "INCLINATION": 97.5484, "RA_OF_ASC_NODE": 21.1176, "ARG_OF_PERICENTER": 52.3695, "MEAN_ANOMALY": 307.7591, "EPHEMERIS_TYPE": 0, "CLASSIFICATION_TYPE": "U", "NORAD_CAT_ID": 28649, "ELEMENT_SET_NO": 999, "REV_AT_EPOCH": 11728, "BSTAR": 0.00011252547, "MEAN_MOTION_DOT": 1.044e-05, "MEAN_MOTION_DDOT": 0}, "tle": {"line1": "1 28649U 05017A   25355.07406593  .00001044  00000+0  11253-3 0  9999", "line2": "2 28649  97.5484  21.1176 0000741  52.3695 307.7591 14.90430022117284"}}, "geometry": {"type": "Point", "coordinates": [-166.9241588072931, -48.83888230761618]}}, {"type": "Feature", "properties": {"norad_id": 28893, "name": "SINAH 1", "group": "resource", "lat": 78.98621261093602, "lon": 76.08503913215418, "alt_km": 663.2359801645343, "timestamp": "2025-12-21T18:54:58.149827+00:00", "meta": {"OBJECT_NAME": "SINAH 1", "OBJECT_ID": "2005-043D", "EPOCH": "2025-12-21T13:37:08.964768", "MEAN_MOTION": 14.63971154, "ECCENTRICITY": 0.00156665, "INCLINATION": 98.2609, "RA_OF_ASC_NODE": 124.1485, "ARG_OF_PERICENTER": 111.1988, "MEAN_ANOMALY": 249.0889, "EPHEMERIS_TYPE": 0, "CLASSIFICATION_TYPE": "U", "NORAD_CAT_ID": 28893, "ELEMENT_SET_NO": 999, "REV_AT_EPOCH": 7453, "BSTAR": 7.7507759e-05, "MEAN_MOTION_DOT": 3.57e-06, "MEAN_MOTION_DDOT": 0}, "tle": {"line1": "1 28893U 05043D   25355.56746487  .00000357  00000+0  77508-4 0  9994", "line2": "2 28893  98.2609 124.1485 0015666 111.1988 249.0889 14.63971154 74534"}}, "geometry": {"type": "Point", "coordinates": [76.08503913215418, 78.98621261093602]}}, {"type": "Feature", "properties": {"norad_id": 29079, "name": "EROS B", "group": "resource", "lat": -68.70058358525488, "lon": 132.13647413380536, "alt_km": 360.9871124792244, "timestamp": "2025-12-21T18:54:58.149837+00:00", "meta": {"OBJECT_NAME": "EROS B", "OBJECT_ID": "2006-014A", "EPOCH": "2025-12-21T14:37:37.778592", "MEAN_MOTION": 15.70953571, "ECCENTRICITY": 0.00036618, "INCLINATION": 97.3462, "RA_OF_ASC_NODE": 112.6239, "ARG_OF_PERICENTER": 311.9506, "MEAN_ANOMALY": 48.1445, "EPHEMERIS_TYPE": 0, "CLASSIFICATION_TYPE": "U", "NORAD_CAT_ID": 29079, "ELEMENT_SET_NO": 999, "REV_AT_EPOCH": 9219, "BSTAR": 0.0012964411, "MEAN_MOTION_DOT": 0.00164661, "MEAN_MOTION_DDOT": 0}, "tle": {"line1": "1 29079U 06014A   25355.60946503  .00164661  00000+0  12964-2 0  9998", "line2": "2 29079  97.3462 112.6239 0003661 311.9506  48.1445 15.70953571 92195"}}, "geometry": {"type": "Point", "coordinates": [132.13647413380536, -68.70058358525488]}}, {"type": "Feature", "properties": {"norad_id": 29228, "name": "RESURS-DK 1", "group": "resource", "lat": 26.891105405013768, "lon": -112.228663370798, "alt_km": 528.6854024850882, "timestamp": "2025-12-21T18:54:58.149848+00:00", "meta": {"OBJECT_NAME": "RESURS-DK 1", "OBJECT_ID": "2006-021A", "EPOCH": "2025-12-21T13:29:13.155648", "MEAN_MOTION": 15.1220531, "ECCENTRICITY": 0.00068644, "INCLINATION": 69.9338, "RA_OF_ASC_NODE": 79.0386, "ARG_OF_PERICENTER": 251.3709, "MEAN_ANOMALY": 108.6712, "EPHEMERIS_TYPE": 0, "CLASSIFICATION_TYPE": "U", "NORAD_CAT_ID": 29228, "ELEMENT_SET_NO": 999, "REV_AT_EPOCH": 7571, "BSTAR": 0.00012204593, "MEAN_MOTION_DOT": 2.006e-05, "MEAN_MOTION_DDOT": 0}, "tle": {"line1": "1 29228U 06021A   25355.56195782  .00002006  00000+0  12205-3 0  9995", "line2": "2 29228  69.9338  79.0386 0006864 251.3709 108.6712 15.12205310 75712"}}, "geometry": {"type": "Point", "coordinates": [-112.228663370798, 26.891105405013768]}}, {"type": "Feature", "properties": {"norad_id": 29268, "name": "ARIRANG-2 (KOMPSAT-2)", "group": "resource", "lat": 5.170534489623158, "lon": -176.89349653991877, "alt_km": 680.5329934744832, "timestamp": "2025-12-21T18:54:58.149859+00:00", "meta": {"OBJECT_NAME": "ARIRANG-2 (KOMPSAT-2)", "OBJECT_ID": "2006-031A", "EPOCH": "2025-12-21T14:23:48.497568", "MEAN_MOTION": 14.64500988, "ECCENTRICITY": 0.00131684, "INCLINATION": 97.8253, "RA_OF_ASC_NODE": 183.6405, "ARG_OF_PERICENTER": 278.6193, "MEAN_ANOMALY": 174.3769, "EPHEMERIS_TYPE": 0, "CLASSIFICATION_TYPE": "U", "NORAD_CAT_ID": 29268, "ELEMENT_SET_NO": 999, "REV_AT_EPOCH": 3548, "BSTAR": 6.6564872e-05, "MEAN_MOTION_DOT": 3.08e-06, "MEAN_MOTION_DDOT": 0}, "tle": {"line1": "1 29268U 06031A   25355.59986687  .00000308  00000+0  66565-4 0  9997", "line2": "2 29268  97.8253 183.6405 0013168 278.6193 174.3769 14.64500988 35487"}}, "geometry": {"type": "Point", "coordinates": [-176.89349653991877, 5.170534489623158]}}, {"type": "Feature", "properties": {"norad_id": 29709, "name": "LAPAN-TUBSAT", "group": "resource", "lat": -81.78731898637706, "lon": 84.29180224665491, "alt_km": 625.7957948612702, "timestamp": "2025-12-21T18:54:58.149869+00:00", "meta": {"OBJECT_NAME": "LAPAN-TUBSAT", "OBJECT_ID": "2007-001A", "EPOCH": "2025-12-21T14:28:36.759072", "MEAN_MOTION": 14.85683015, "ECCENTRICITY": 0.00133644, "INCLINATION": 98.1252, "RA_OF_ASC_NODE": 345.9418, "ARG_OF_PERICENTER": 48.0549, "MEAN_ANOMALY": 312.1802, "EPHEMERIS_TYPE": 0, "CLASSIFICATION_TYPE": "U", "NORAD_CAT_ID": 29709, "ELEMENT_SET_NO": 999, "REV_AT_EPOCH": 2478, "BSTAR": 9.3912539e-05, "MEAN_MOTION_DOT": 7.58e-06, "MEAN_MOTION_DDOT": 0}, "tle": {"line1": "1 29709U 07001A   25355.60320323  .00000758  00000+0  93913-4 0  9992", "line2": "2 29709  98.1252 345.9418 0013364  48.0549 312.1802 14.85683015 24786"}}, "geometry": {"type": "Point", "coordinates": [84.29180224665491, -81.78731898637706]}}, {"type": "Feature", "properties": {"norad_id": 31113, "name": "HAIYANG-1B", "group": "resource", "lat": 5.181547259665728, "lon": 160.45421449596742, "alt_km": 800.2145156292399, "timestamp": "2025-12-21T18:54:58.149880+00:00", "meta": {"OBJECT_NAME": "HAIYANG-1B", "OBJECT_ID": "2007-010A", "EPOCH": "2025-12-20T20:17:13.259040", "MEAN_MOTION": 14.30967553, "ECCENTRICITY": 0.0013866, "INCLINATION": 98.3321, "RA_OF_ASC_NODE": 338.7888, "ARG_OF_PERICENTER": 14.9776, "MEAN_ANOMALY": 345.1816, "EPHEMERIS_TYPE": 0, "CLASSIFICATION_TYPE": "U", "NORAD_CAT_ID": 31113, "ELEMENT_SET_NO": 999, "REV_AT_EPOCH": 97512, "BSTAR": 4.2056e-05, "MEAN_MOTION_DOT": 6.9e-07, "MEAN_MOTION_DDOT": 0}, "tle": {"line1": "1 31113U 07010A   25354.84529235  .00000069  00000+0  42056-4 0  9999", "line2": "2 31113  98.3321 338.7888 0013866  14.9776 345.1816 14.30967553975125"}}, "geometry": {"type": "Point", "coordinates": [160.45421449596742, 5.181547259665728]}}, {"type": "Feature", "properties": {"norad_id": 31598, "name": "COSMO-SKYMED 1", "group": "resource", "lat": -14.066747220262332, "lon": -0.7428327268610225, "alt_km": 584.8866606384427, "timestamp": "2025-12-21T18:54:58.149890+00:00", "meta": {"OBJECT_NAME": "COSMO-SKYMED 1", "OBJECT_ID": "2007-023A", "EPOCH": "2025-12-21T13:14:05.856288", "MEAN_MOTION": 14.95829297, "ECCENTRICITY": 0.00015262, "INCLINATION": 97.8838, "RA_OF_ASC_NODE": 181.0087, "ARG_OF_PERICENTER": 81.8232, "MEAN_ANOMALY": 278.3162, "EPHEMERIS_TYPE": 0, "CLASSIFICATION_TYPE": "U", "NORAD_CAT_ID": 31598, "ELEMENT_SET_NO": 999, "REV_AT_EPOCH": 322, "BSTAR": 0.00026616565, "MEAN_MOTION_DOT": 2.913e-05, "MEAN_MOTION_DDOT": 0}, "tle": {"line1": "1 31598U 07023A   25355.55145667  .00002913  00000+0  26617-3 0  9996", "line2": "2 31598  97.8838 181.0087 0001526  81.8232 278.3162 14.95829297  3226"}}, "geometry": {"type": "Point", "coordinates": [-0.7428327268610225, -14.066747220262332]}}, {"type": "Feature", "properties": {"norad_id": 31698, "name": "TERRASAR-X", "group": "resource", "lat": -67.96092646371903, "lon": 162.18984219375727, "alt_km": 516.890235860642, "timestamp": "2025-12-21T18:54:58.149901+00:00", "meta": {"OBJECT_NAME": "TERRASAR-X", "OBJECT_ID": "2007-026A", "EPOCH": "2025-12-21T13:04:48.918432", "MEAN_MOTION": 15.19155537, "ECCENTRICITY": 0.00019084, "INCLINATION": 97.4453, "RA_OF_ASC_NODE": 0.797, "ARG_OF_PERICENTER": 92.2081, "MEAN_ANOMALY": 267.9372, "EPHEMERIS_TYPE": 0, "CLASSIFICATION_TYPE": "U", "NORAD_CAT_ID": 31698, "ELEMENT_SET_NO": 999, "REV_AT_EPOCH": 2625, "BSTAR": 3.2983576e-05, "MEAN_MOTION_DOT": 6.26e-06, "MEAN_MOTION_DDOT": 0}, "tle": {"line1": "1 31698U 07026A   25355.54501063  .00000626  00000+0  32984-4 0  9999", "line2": "2 31698  97.4453   0.7970 0001908  92.2081 267.9372 15.19155537 26257"}}, "geometry": {"type": "Point", "coordinates": [162.18984219375727, -67.96092646371903]}}, {"type": "Feature", "properties": {"norad_id": 32060, "name": "WORLDVIEW-1 (WV-1)", "group": "resource", "lat": 65.03644580638432, "lon": 96.96746392571144, "alt_km": 486.59251311273147, "timestamp": "2025-12-21T18:54:58.149911+00:00", "meta": {"OBJECT_NAME": "WORLDVIEW-1 (WV-1)", "OBJECT_ID": "2007-041A", "EPOCH": "2025-12-21T07:35:45.212064", "MEAN_MOTION": 15.23889862, "ECCENTRICITY": 0.0003441, "INCLINATION": 97.3826, "RA_OF_ASC_NODE": 112.6749, "ARG_OF_PERICENTER": 8.1676, "MEAN_ANOMALY": 351.9617, "EPHEMERIS_TYPE": 0, "CLASSIFICATION_TYPE": "U", "NORAD_CAT_ID": 32060, "ELEMENT_SET_NO": 999, "REV_AT_EPOCH": 1578, "BSTAR": 0.00024181, "MEAN_MOTION_DOT": 5.768e-05, "MEAN_MOTION_DDOT": 0}, "tle": {"line1": "1 32060U 07041A   25355.31649551  .00005768  00000+0  24181-3 0  9991", "line2": "2 32060  97.3826 112.6749 0003441   8.1676 351.9617 15.23889862 15783"}}, "geometry": {"type": "Point", "coordinates": [96.96746392571144, 65.03644580638432]}}]}